start=new Date('2023-06-25T00:00:00.000Z').valueOf();
sats=[{"ECCENTRICITY":"0.00009510","MEAN_MOTION_DDOT":"0.0000000000000","TLE_LINE1":"1 49448U 21104AS  23175.73849799  .00002950  00000-0  20330-3 0  9998","DECAY_DATE":null,"TIME_SYSTEM":"UTC","BSTAR":"0.00020330000000","INCLINATION":"53.2181","REF_FRAME":"TEME","MEAN_MOTION_DOT":"0.00002950","CLASSIFICATION_TYPE":"U","MEAN_MOTION":"15.08846054","RA_OF_ASC_NODE":"338.7459","TLE_LINE2":"2 49448  53.2181 338.7459 0000951  90.8381 269.2720 15.08846054 90541","OBJECT_TYPE":"PAYLOAD","EPOCH":"2023-06-24T17:43:26.226336","PERIAPSIS":"539.069","FILE":"3941911","MEAN_ELEMENT_THEORY":"SGP4","RCS_SIZE":"LARGE","ARG_OF_PERICENTER":"90.8381","EPHEMERIS_TYPE":"0","SITE":"AFETR","NORAD_CAT_ID":"49448","CENTER_NAME":"EARTH","GP_ID":"234531887","LAUNCH_DATE":"2021-11-13","REV_AT_EPOCH":"9054","OBJECT_ID":"2021-104AS","MEAN_ANOMALY":"269.2720","OBJECT_NAME":"STARLINK-3097","SEMIMAJOR_AXIS":"6917.862","COUNTRY_CODE":"US","APOAPSIS":"540.385","PERIOD":"95.437","ELEMENT_SET_NO":"999"},{"OBJECT_NAME":"STARLINK-3137","SEMIMAJOR_AXIS":"6917.882","COUNTRY_CODE":"US","APOAPSIS":"540.389","PERIOD":"95.438","ELEMENT_SET_NO":"999","EPHEMERIS_TYPE":"0","NORAD_CAT_ID":"49449","CENTER_NAME":"EARTH","SITE":"AFETR","GP_ID":"234525744","REV_AT_EPOCH":"9047","LAUNCH_DATE":"2021-11-13","OBJECT_ID":"2021-104AT","MEAN_ANOMALY":"284.9631","MEAN_MOTION_DOT":"0.00000008","CLASSIFICATION_TYPE":"U","MEAN_MOTION":"15.08839409","TLE_LINE2":"2 49449  53.2172 341.1610 0000928  75.1464 284.9631 15.08839409 90474","RA_OF_ASC_NODE":"341.1610","OBJECT_TYPE":"PAYLOAD","FILE":"3941650","MEAN_ELEMENT_THEORY":"SGP4","PERIAPSIS":"539.105","EPOCH":"2023-06-24T04:32:28.661568","RCS_SIZE":"LARGE","ARG_OF_PERICENTER":"75.1464","ECCENTRICITY":"0.00009280","MEAN_MOTION_DDOT":"0.0000000000000","TLE_LINE1":"1 49449U 21104AT  23175.18922062  .00000008  00000-0  18553-4 0  9990","TIME_SYSTEM":"UTC","DECAY_DATE":null,"BSTAR":"0.00001855300000","INCLINATION":"53.2172","REF_FRAME":"TEME"},{"MEAN_ANOMALY":"274.3738","OBJECT_ID":"2021-104AU","LAUNCH_DATE":"2021-11-13","REV_AT_EPOCH":"9039","GP_ID":"234505952","CENTER_NAME":"EARTH","NORAD_CAT_ID":"49450","SITE":"AFETR","EPHEMERIS_TYPE":"0","PERIOD":"95.437","ELEMENT_SET_NO":"999","APOAPSIS":"540.361","COUNTRY_CODE":"US","SEMIMAJOR_AXIS":"6917.873","OBJECT_NAME":"STARLINK-3127","REF_FRAME":"TEME","INCLINATION":"53.2169","BSTAR":"0.00007812400000","TIME_SYSTEM":"UTC","DECAY_DATE":null,"MEAN_MOTION_DDOT":"0.0000000000000","TLE_LINE1":"1 49450U 21104AU  23174.73385565  .00000956  00000-0  78124-4 0  9995","ECCENTRICITY":"0.00009010","ARG_OF_PERICENTER":"85.7357","RCS_SIZE":"LARGE","MEAN_ELEMENT_THEORY":"SGP4","FILE":"3940846","PERIAPSIS":"539.115","EPOCH":"2023-06-23T17:36:45.128160","OBJECT_TYPE":"PAYLOAD","RA_OF_ASC_NODE":"343.2121","TLE_LINE2":"2 49450  53.2169 343.2121 0000901  85.7357 274.3738 15.08842395 90391","MEAN_MOTION":"15.08842395","CLASSIFICATION_TYPE":"U","MEAN_MOTION_DOT":"0.00000956"},{"MEAN_ELEMENT_THEORY":"SGP4","FILE":"3941911","PERIAPSIS":"538.864","EPOCH":"2023-06-24T17:10:15.874464","OBJECT_TYPE":"PAYLOAD","ARG_OF_PERICENTER":"84.8491","RCS_SIZE":"LARGE","CLASSIFICATION_TYPE":"U","MEAN_MOTION_DOT":"0.00001462","RA_OF_ASC_NODE":"338.8004","TLE_LINE2":"2 49451  53.2176 338.8004 0001268  84.8491 275.2646 15.08841430 90551","MEAN_MOTION":"15.08841430","REF_FRAME":"TEME","TLE_LINE1":"1 49451U 21104AV  23175.71546151  .00001462  00000-0  10990-3 0  9994","MEAN_MOTION_DDOT":"0.0000000000000","ECCENTRICITY":"0.00012680","INCLINATION":"53.2176","BSTAR":"0.00010990000000","TIME_SYSTEM":"UTC","DECAY_DATE":null,"APOAPSIS":"540.618","COUNTRY_CODE":"US","PERIOD":"95.437","ELEMENT_SET_NO":"999","OBJECT_NAME":"STARLINK-3125","SEMIMAJOR_AXIS":"6917.876","OBJECT_ID":"2021-104AV","REV_AT_EPOCH":"9055","LAUNCH_DATE":"2021-11-13","MEAN_ANOMALY":"275.2646","NORAD_CAT_ID":"49451","CENTER_NAME":"EARTH","SITE":"AFETR","EPHEMERIS_TYPE":"0","GP_ID":"234531884"},{"SEMIMAJOR_AXIS":"6917.873","OBJECT_NAME":"STARLINK-3150","PERIOD":"95.437","ELEMENT_SET_NO":"999","APOAPSIS":"540.387","COUNTRY_CODE":"US","GP_ID":"234526660","CENTER_NAME":"EARTH","NORAD_CAT_ID":"49452","SITE":"AFETR","EPHEMERIS_TYPE":"0","MEAN_ANOMALY":"280.9789","OBJECT_ID":"2021-104AW","LAUNCH_DATE":"2021-11-13","REV_AT_EPOCH":"9055","TLE_LINE2":"2 49452  53.2172 338.8776 0000939  79.1308 280.9789 15.08842562 90550","RA_OF_ASC_NODE":"338.8776","MEAN_MOTION":"15.08842562","CLASSIFICATION_TYPE":"U","MEAN_MOTION_DOT":"0.00001752","ARG_OF_PERICENTER":"79.1308","RCS_SIZE":"LARGE","MEAN_ELEMENT_THEORY":"SGP4","FILE":"3941705","EPOCH":"2023-06-24T16:54:21.973536","PERIAPSIS":"539.088","OBJECT_TYPE":"PAYLOAD","BSTAR":"0.00012812000000","INCLINATION":"53.2172","TIME_SYSTEM":"UTC","DECAY_DATE":null,"TLE_LINE1":"1 49452U 21104AW  23175.70442099  .00001752  00000-0  12812-3 0  9997","MEAN_MOTION_DDOT":"0.0000000000000","ECCENTRICITY":"0.00009390","REF_FRAME":"TEME"},{"REF_FRAME":"TEME","MEAN_MOTION_DDOT":"0.0000000000000","TLE_LINE1":"1 49453U 21104AX  23175.18650378  .00002191  00000-0  15570-3 0  9993","ECCENTRICITY":"0.00010420","INCLINATION":"53.2177","BSTAR":"0.00015570000000","DECAY_DATE":null,"TIME_SYSTEM":"UTC","EPOCH":"2023-06-24T04:28:33.926592","PERIAPSIS":"539.013","FILE":"3941430","MEAN_ELEMENT_THEORY":"SGP4","OBJECT_TYPE":"PAYLOAD","ARG_OF_PERICENTER":"78.1571","RCS_SIZE":"LARGE","CLASSIFICATION_TYPE":"U","MEAN_MOTION_DOT":"0.00002191","RA_OF_ASC_NODE":"341.2608","TLE_LINE2":"2 49453  53.2177 341.2608 0001042  78.1571 281.9538 15.08843864 90464","MEAN_MOTION":"15.08843864","OBJECT_ID":"2021-104AX","LAUNCH_DATE":"2021-11-13","REV_AT_EPOCH":"9046","MEAN_ANOMALY":"281.9538","SITE":"AFETR","NORAD_CAT_ID":"49453","CENTER_NAME":"EARTH","EPHEMERIS_TYPE":"0","GP_ID":"234519887","APOAPSIS":"540.454","COUNTRY_CODE":"US","PERIOD":"95.437","ELEMENT_SET_NO":"999","OBJECT_NAME":"STARLINK-3129","SEMIMAJOR_AXIS":"6917.869"},{"TLE_LINE2":"2 49454  53.2173 342.9789 0001104  69.8660 290.2451 15.08838750 90414","RA_OF_ASC_NODE":"342.9789","MEAN_MOTION":"15.08838750","CLASSIFICATION_TYPE":"U","MEAN_MOTION_DOT":"0.00001551","ARG_OF_PERICENTER":"69.8660","RCS_SIZE":"LARGE","EPOCH":"2023-06-23T18:49:33.840480","PERIAPSIS":"538.985","FILE":"3940847","MEAN_ELEMENT_THEORY":"SGP4","OBJECT_TYPE":"PAYLOAD","INCLINATION":"53.2173","BSTAR":"0.00011549000000","DECAY_DATE":null,"TIME_SYSTEM":"UTC","MEAN_MOTION_DDOT":"0.0000000000000","TLE_LINE1":"1 49454U 21104AY  23174.78441945  .00001551  00000-0  11549-3 0  9998","ECCENTRICITY":"0.00011040","REF_FRAME":"TEME","SEMIMAJOR_AXIS":"6917.884","OBJECT_NAME":"STARLINK-3160","PERIOD":"95.438","ELEMENT_SET_NO":"999","APOAPSIS":"540.513","COUNTRY_CODE":"US","GP_ID":"234506465","SITE":"AFETR","NORAD_CAT_ID":"49454","CENTER_NAME":"EARTH","EPHEMERIS_TYPE":"0","MEAN_ANOMALY":"290.2451","OBJECT_ID":"2021-104AY","REV_AT_EPOCH":"9041","LAUNCH_DATE":"2021-11-13"},{"COUNTRY_CODE":"US","APOAPSIS":"540.299","PERIOD":"95.438","ELEMENT_SET_NO":"999","OBJECT_NAME":"STARLINK-3145","SEMIMAJOR_AXIS":"6917.884","REV_AT_EPOCH":"9054","LAUNCH_DATE":"2021-11-13","OBJECT_ID":"2021-104AZ","MEAN_ANOMALY":"264.0312","EPHEMERIS_TYPE":"0","SITE":"AFETR","CENTER_NAME":"EARTH","NORAD_CAT_ID":"49455","GP_ID":"234531889","OBJECT_TYPE":"PAYLOAD","PERIAPSIS":"539.199","EPOCH":"2023-06-24T16:43:45.763680","MEAN_ELEMENT_THEORY":"SGP4","FILE":"3941911","RCS_SIZE":"LARGE","ARG_OF_PERICENTER":"96.0771","MEAN_MOTION_DOT":"-0.00000521","CLASSIFICATION_TYPE":"U","MEAN_MOTION":"15.08838731","TLE_LINE2":"2 49455  53.2170 338.8820 0000795  96.0771 264.0312 15.08838731 90540","RA_OF_ASC_NODE":"338.8820","REF_FRAME":"TEME","ECCENTRICITY":"0.00007950","TLE_LINE1":"1 49455U 21104AZ  23175.69705745 -.00000521  00000-0 -14670-4 0  9998","MEAN_MOTION_DDOT":"0.0000000000000","DECAY_DATE":null,"TIME_SYSTEM":"UTC","BSTAR":"-0.00001467000000","INCLINATION":"53.2170"},{"ELEMENT_SET_NO":"999","PERIOD":"95.437","COUNTRY_CODE":"US","APOAPSIS":"540.435","SEMIMAJOR_AXIS":"6917.867","OBJECT_NAME":"STARLINK-3124","MEAN_ANOMALY":"267.9637","LAUNCH_DATE":"2021-11-13","REV_AT_EPOCH":"9046","OBJECT_ID":"2021-104BA","GP_ID":"234520764","EPHEMERIS_TYPE":"0","CENTER_NAME":"EARTH","NORAD_CAT_ID":"49456","SITE":"AFETR","RCS_SIZE":"LARGE","ARG_OF_PERICENTER":"92.1472","OBJECT_TYPE":"PAYLOAD","FILE":"3941444","MEAN_ELEMENT_THEORY":"SGP4","EPOCH":"2023-06-24T04:17:57.423840","PERIAPSIS":"539.028","MEAN_MOTION":"15.08844503","TLE_LINE2":"2 49456  53.2174 341.2590 0001017  92.1472 267.9637 15.08844503 90467","RA_OF_ASC_NODE":"341.2590","MEAN_MOTION_DOT":"0.00002566","CLASSIFICATION_TYPE":"U","REF_FRAME":"TEME","TIME_SYSTEM":"UTC","DECAY_DATE":null,"BSTAR":"0.00017922000000","INCLINATION":"53.2174","ECCENTRICITY":"0.00010170","TLE_LINE1":"1 49456U 21104BA  23175.17913685  .00002566  00000-0  17922-3 0  9997","MEAN_MOTION_DDOT":"0.0000000000000"},{"REF_FRAME":"TEME","TIME_SYSTEM":"UTC","DECAY_DATE":null,"INCLINATION":"53.2154","BSTAR":"0.00017154000000","ECCENTRICITY":"0.00009750","MEAN_MOTION_DDOT":"0.0000000000000","TLE_LINE1":"1 49457U 21104BB  23175.16442046  .00002443  00000-0  17154-3 0  9996","RCS_SIZE":"LARGE","ARG_OF_PERICENTER":"66.3262","OBJECT_TYPE":"PAYLOAD","FILE":"3941444","MEAN_ELEMENT_THEORY":"SGP4","PERIAPSIS":"539.067","EPOCH":"2023-06-24T03:56:45.927744","MEAN_MOTION":"15.08841404","TLE_LINE2":"2 49457  53.2154 341.2790 0000975  66.3262 293.7833 15.08841404 90462","RA_OF_ASC_NODE":"341.2790","MEAN_MOTION_DOT":"0.00002443","CLASSIFICATION_TYPE":"U","MEAN_ANOMALY":"293.7833","LAUNCH_DATE":"2021-11-13","REV_AT_EPOCH":"9046","OBJECT_ID":"2021-104BB","GP_ID":"234520274","EPHEMERIS_TYPE":"0","NORAD_CAT_ID":"49457","CENTER_NAME":"EARTH","SITE":"AFETR","PERIOD":"95.437","ELEMENT_SET_NO":"999","COUNTRY_CODE":"US","APOAPSIS":"540.416","SEMIMAJOR_AXIS":"6917.876","OBJECT_NAME":"STARLINK-3132"}];
